#aV2012  7 16  0  0  0.00000000     288 DD+AD WGS84 FIT  NGA
## 1697  86400.00000000   300.00000000 56124 0.0000000000000
+   31     1  2  3  4  5  6  7  8  9 10 11 12 13 14 15 16 17
+         18 19 20 21 22 23 25 26 27 28 29 30 31 32  0  0  0
+          0  0  0  0  0  0  0  0  0  0  0  0  0  0  0  0  0
+          0  0  0  0  0  0  0  0  0  0  0  0  0  0  0  0  0
+          0  0  0  0  0  0  0  0  0  0  0  0  0  0  0  0  0
++         2  2  2  2  2  2  2  2  2  2  2  2  2  2  2  2  2
++         2  2  2  2  2  2  2  2  2  2  2  2  2  2  2  0  0
++         0  0  0  0  0  0  0  0  0  0  0  0  0  0  0  0  0
++         0  0  0  0  0  0  0  0  0  0  0  0  0  0  0  0  0
++         0  0  0  0  0  0  0  0  0  0  0  0  0  0  0  0  0
%c cc cc ccc ccc cccc cccc cccc cccc ccccc ccccc ccccc ccccc
%c cc cc ccc ccc cccc cccc cccc cccc ccccc ccccc ccccc ccccc
%f  0.0000000  0.000000000  0.00000000000  0.000000000000000
%f  0.0000000  0.000000000  0.00000000000  0.000000000000000
%i    0    0    0    0      0      0      0      0         0
%i    0    0    0    0      0      0      0      0         0
/*      NGA, ST. LOUIS,MO.                                  
/*   EPHEMERIS COMPUTED FROM  1 DAYS OF DATA
/*   EPOCHA SMOOTHER  
/* CCCCCCCCCCCCCCCCCCCCCCCCCCCCCCCCCCCCCCCCCCCCCCCCCCCCCCCCC
*  2012  7 16  7 45  0.00000000                                                 
P  1 -13985.640718  22551.390824    163.649256    265.745775                    
V  1  -2350.755650  -1698.560155  31759.928671      0.015444                    
P  2  18454.855877  -5202.261105 -18025.571733    396.951544                    
V  2 -10074.908289  21267.380214 -16830.043284      0.011843                    
P  3 -18144.480981   -998.218897  18977.127092     75.969972                    
V  3 -13493.133665 -21273.306358 -13410.726506      0.048363                    
P  4  13615.297492   8099.715358 -21571.137260    245.276539                    
V  4 -14219.015266  22824.826084    -96.300594      0.113102                    
P  5  26257.298235  -2040.059667   3926.074867   -335.039775                    
V  5   4906.764354   3137.551367 -30915.834300     -0.034480                    
P  6 -19049.418397  -6269.988948  17679.033786      6.254660                    
V  6 -10092.798580 -19827.941748 -17711.372348     -0.051187                    
P  7  -4602.379970  22854.077717  12489.173871    100.920576                    
V  7 -10361.064429  12247.346476 -26535.157843      0.038757                    
P  8   6102.900111  14596.324321  21279.839890      1.782705                    
V  8 -16965.645900  20889.928248 -10059.182626      0.000848                    
P  9  15658.326216 -21050.574929   3751.458332    172.049411                    
V  9  -1060.955771   5722.214787  31770.247637      0.025425                    
P 10  21559.470790  10088.653716 -12444.028687    -44.953024                    
V 10 -15385.305321   1578.585562 -25511.694785     -0.013630                    
P 11 -13012.673719  21299.723463   8226.870144   -282.227562                    
V 11  -1730.231696 -12133.597318  27698.325113     -0.038854                    
P 12  15302.050194 -11465.781061 -18364.597013     80.188690                    
V 12  23199.541145   2625.633857  17893.019779      0.020793                    
P 13   4149.944577  24719.300046  -8755.522704    194.325282                    
V 13  -6021.752696  -9315.668880 -29733.204796     -0.025049                    
P 14 -14720.337846 -21014.765959  -6978.438186    207.141073                    
V 14  -1876.663036  -9094.069967  30388.833447      0.006356                    
P 15   9913.010529 -13054.945660  20853.988756    -92.565512                    
V 15  13924.516821  22676.501152   7785.657793     -0.003730                    
P 16 -26437.380997    652.983587   3910.134494   -241.203420                    
V 16  -4762.012062  -2230.966160 -31485.929561     -0.010439                    
P 17  14926.169412  21310.148564  -5756.385394    112.973593                    
V 17   1088.578435   7809.735364  30541.907765     -0.031767                    
P 18  -6285.006443 -15818.920837  20830.451378    205.465642                    
V 18  25672.616922    249.145364   7713.227789      0.018200                    
P 19 -12041.656001   9882.360201  21409.014601   -285.129434                    
V 19 -11361.502071 -24911.752860   5489.257982     -0.036028                    
P 20 -11120.677020  14602.414303 -19332.410748     64.849674                    
V 20 -24373.861789  -1249.707416  13249.875807      0.004302                    
P 21   -208.654554 -21577.355274  15604.401078   -236.893733                    
V 21  12579.944914 -14833.595443 -21601.625130     -0.024814                    
P 22 -20296.737748 -10965.438553  13463.356938    145.534311                    
V 22  16932.767028  -2166.986229  23969.217605      0.005512                    
P 23  -3996.027217  19178.294499 -17708.429588    184.940899                    
V 23 -12158.176560 -19289.497445 -18481.086698     -0.038714                    
P 25    480.843235 -15043.104754 -21923.916868     37.377693                    
V 25  27707.618104    640.472673    230.226868      0.008346                    
P 26  15754.194887   1599.486896  20774.686283   -344.947409                    
V 26  10427.637424  25654.757375  -9256.699921      0.113337                    
P 27  17534.745054 -17143.441721  10120.363500    409.734790                    
V 27  -4113.456900  11595.766183  28974.091279      0.040940                    
P 28  17515.302197  12420.401383  16328.801163    165.410568                    
V 28 -19617.859433   -370.603654  21873.466332      0.039146                    
P 29  -1851.440842 -23480.221251 -12257.554840    334.079250                    
V 29   8785.651226  13128.538759 -26300.782373      0.038840                    
P 30 -25304.849302  -3556.068236  -7595.454056   -301.241287                    
V 30   8959.230766  -3229.640409 -29769.001398     -0.236038                    
P 31 -13760.252641  -5639.136546 -21835.088839    260.602839                    
V 31  15127.062425 -23681.176747  -3152.542798      0.028377                    
P 32 -19593.044575   8604.070875 -15212.194278   -465.684355                    
V 32 -19458.674189  -4910.195029  22469.627029     -0.042633                    
EOF
